[{"OBJECT_NAME":"NORSAT 3","OBJECT_ID":"2021-034E","EPOCH":"2026-03-09T22:23:32.431200","MEAN_MOTION":15.04338407,"ECCENTRICITY":0.0005858,"INCLINATION":97.5427,"RA_OF_ASC_NODE":128.5959,"ARG_OF_PERICENTER":280.8366,"MEAN_ANOMALY":79.2201,"EPHEMERIS_TYPE":0,"CLASSIFICATION_TYPE":"U","NORAD_CAT_ID":48272,"ELEMENT_SET_NO":999,"REV_AT_EPOCH":26491,"BSTAR":0.00030361478,"MEAN_MOTION_DOT":4.174e-5,"MEAN_MOTION_DDOT":0},{"OBJECT_NAME":"STARLINK-34548","OBJECT_ID":"2025-142W","EPOCH":"2026-03-09T21:20:20.957280","MEAN_MOTION":14.99752914,"ECCENTRICITY":0.00111598,"INCLINATION":70.0032,"RA_OF_ASC_NODE":313.8354,"ARG_OF_PERICENTER":256.7432,"MEAN_ANOMALY":103.2483,"EPHEMERIS_TYPE":0,"CLASSIFICATION_TYPE":"U","NORAD_CAT_ID":64716,"ELEMENT_SET_NO":999,"REV_AT_EPOCH":3949,"BSTAR":0.071342808,"MEAN_MOTION_DOT":0.00948623,"MEAN_MOTION_DDOT":0}]
